0 ARIANE 5 R/B
1 29275U 06033D   13282.14802604  .00000841  00000-0  55245-3 0  5665
2 29275 006.2022 086.7913 7175691 218.5330 085.1259 02.39340321 61005
0 ARIANE 5 R/B
1 29275U 06033D   13285.92639505  .00000973  00000-0  58029-3 0  5683
2 29275 006.2103 085.2078 7175107 221.7190 100.6906 02.39349818 61094
0 ARIANE 5 R/B
1 29275U 06033D   13287.99838358  .00001278  00000-0  66355-3 0  5690
2 29275 006.2142 084.3416 7174797 223.4633 086.0317 02.39355943 61143
0 ARIANE 5 R/B
1 29275U 06033D   13290.16592519  .00001195  00000-0  59342-3 0  5707
2 29275 006.2181 083.4361 7174485 225.2842 153.7600 02.39361336 61196
0 ARIANE 5 R/B
1 29275U 06033D   13292.26737845  .00001140  00000-0  62571-3 0  5712
2 29275 006.2221 082.5581 7174228 227.0489 164.5838 02.39365721 61248
0 ARIANE 5 R/B
1 29275U 06033D   13295.82598102  .00000880  00000-0  64174-3 0  5720
2 29275 006.2283 081.0735 7173840 230.0366 351.1169 02.39373913 61331
